NORAD_CAT_ID,OBJECT_NAME,OBJECT_TYPE,EPOCH,MEAN_MOTION,ECCENTRICITY,INCLINATION,RA_OF_ASC_NODE,ARG_OF_PERICENTER,MEAN_ANOMALY,BSTAR,MEAN_MOTION_DOT,MEAN_MOTION_DDOT,TLE_LINE0,TLE_LINE1,TLE_LINE2,SEMIMAJOR_AXIS,PERIOD,APOGEE,PERIGEE,DECAYED
52630.0,STARLINK-3989,PAYLOAD,2024-01-07 21:20:22,15.08835962,0.0001516,53.2156,223.6516,98.4902,261.6262,4.2321e-05,3.86e-06,0.0,0 STARLINK-3989,1 52630U 22052AJ  24007.88915406  .00000386  00000-0  42321-4 0  9994,2 52630  53.2156 223.6516 0001516  98.4902 261.6262 15.08835962 91451,6917.893,95.438,540.806,538.709,0.0
52630.0,STARLINK-3989,PAYLOAD,2024-01-08 13:14:14,15.08836972,0.00015,53.2154,220.6782,98.8927,261.2235,6.5644e-05,7.57e-06,0.0,0 STARLINK-3989,1 52630U 22052AJ  24008.55155462  .00000757  00000-0  65644-4 0  9992,2 52630  53.2154 220.6782 0001500  98.8927 261.2235 15.08836972 91554,6917.89,95.438,540.792,538.717,0.0
52630.0,STARLINK-3989,PAYLOAD,2024-01-08 21:11:09,15.0883931,0.0001504,53.2156,219.1917,101.0844,259.0318,7.7833e-05,9.51e-06,0.0,0 STARLINK-3989,1 52630U 22052AJ  24008.88275319  .00000951  00000-0  77833-4 0  9991,2 52630  53.2156 219.1917 0001504 101.0844 259.0318 15.08839310 91600,6917.882,95.438,540.788,538.707,0.0
52630.0,STARLINK-3989,PAYLOAD,2024-01-09 19:26:33,15.08839546,0.000149,53.2159,215.029,100.6965,259.4195,8.6918e-05,1.096e-05,0.0,0 STARLINK-3989,1 52630U 22052AJ  24009.81011470  .00001096  00000-0  86918-4 0  9996,2 52630  53.2159 215.0290 0001490 100.6965 259.4195 15.08839546 92121,6917.882,95.438,540.778,538.716,0.0
52630.0,STARLINK-3989,PAYLOAD,2024-01-09 22:37:20,15.08840205,0.0001436,53.2155,214.4341,92.0542,268.0615,8.6056e-05,1.082e-05,0.0,0 STARLINK-3989,1 52630U 22052AJ  24009.94259469  .00001082  00000-0  86056-4 0  9990,2 52630  53.2155 214.4341 0001436  92.0542 268.0615 15.08840205 91768,6917.88,95.438,540.738,538.751,0.0
52630.0,STARLINK-3989,PAYLOAD,2024-01-10 20:52:43,15.08844017,0.0001447,53.2159,210.2716,87.8971,272.2187,7.9418e-05,9.76e-06,0.0,0 STARLINK-3989,1 52630U 22052AJ  24010.86995293  .00000976  00000-0  79418-4 0  9990,2 52630  53.2159 210.2716 0001447  87.8971 272.2187 15.08844017 92286,6917.868,95.437,540.734,538.732,0.0
52630.0,STARLINK-3989,PAYLOAD,2024-01-11 12:46:35,15.08843474,0.0001498,53.2159,207.2983,83.374,276.7423,7.2796e-05,8.71e-06,0.0,0 STARLINK-3989,1 52630U 22052AJ  24011.53235290  .00000871  00000-0  72796-4 0  9995,2 52630  53.2159 207.2983 0001498  83.3740 276.7423 15.08843474 92007,6917.87,95.437,540.771,538.698,0.0
52630.0,STARLINK-3989,PAYLOAD,2024-01-11 19:08:07,15.08844154,0.000149,53.2159,206.1086,84.1104,276.0058,7.3808e-05,8.87e-06,0.0,0 STARLINK-3989,1 52630U 22052AJ  24011.79731208  .00000887  00000-0  73808-4 0  9995,2 52630  53.2159 206.1086 0001490  84.1104 276.0058 15.08844154 92041,6917.868,95.437,540.763,538.702,0.0
52630.0,STARLINK-3989,PAYLOAD,2024-01-12 18:58:55,15.08839725,0.0001422,53.2158,201.6481,88.3802,271.7353,2.2458e-05,6.9e-07,0.0,0 STARLINK-3989,1 52630U 22052AJ  24012.79091544  .00000069  00000-0  22458-4 0  9995,2 52630  53.2158 201.6481 0001422  88.3802 271.7353 15.08839725 92571,6917.881,95.438,540.73,538.763,0.0
52630.0,STARLINK-3989,PAYLOAD,2024-01-13 12:28:09,15.08840652,0.0001392,53.2155,198.3772,89.4926,270.6225,5.6594e-05,6.13e-06,0.0,0 STARLINK-3989,1 52630U 22052AJ  24013.51955363  .00000613  00000-0  56594-4 0  9997,2 52630  53.2155 198.3772 0001392  89.4926 270.6225 15.08840652 92306,6917.878,95.438,540.706,538.78,0.0
52630.0,STARLINK-3989,PAYLOAD,2024-01-14 12:18:56,15.08839029,0.0001263,53.2155,193.9149,88.5728,271.5409,7.0511e-05,8.34e-06,0.0,0 STARLINK-3989,1 52630U 22052AJ  24014.51315433  .00000834  00000-0  70511-4 0  9996,2 52630  53.2155 193.9149 0001263  88.5728 271.5409 15.08839029 92830,6917.883,95.438,540.622,538.875,0.0
52630.0,STARLINK-3989,PAYLOAD,2024-01-14 17:05:05,15.0884075,0.0001322,53.2163,193.0224,93.2661,266.8483,9.0828e-05,1.158e-05,0.0,0 STARLINK-3989,1 52630U 22052AJ  24014.71187295  .00001158  00000-0  90828-4 0  9994,2 52630  53.2163 193.0224 0001322  93.2661 266.8483 15.08840750 92482,6917.878,95.438,540.658,538.829,0.0
52630.0,STARLINK-3989,PAYLOAD,2024-01-15 12:09:43,15.08838732,0.0001184,53.2168,189.4539,85.5418,274.5709,7.9782e-05,9.82e-06,0.0,0 STARLINK-3989,1 52630U 22052AJ  24015.50675507  .00000982  00000-0  79782-4 0  9990,2 52630  53.2168 189.4539 0001184  85.5418 274.5709 15.08838732 92603,6917.884,95.438,540.568,538.93,0.0
52630.0,STARLINK-3989,PAYLOAD,2024-01-15 18:31:16,15.0884286,0.0001246,53.2167,188.2647,85.9955,274.1179,3.7521e-05,3.09e-06,0.0,0 STARLINK-3989,1 52630U 22052AJ  24015.77171352  .00000309  00000-0  37521-4 0  9996,2 52630  53.2167 188.2647 0001246  85.9955 274.1179 15.08842860 93029,6917.872,95.437,540.599,538.875,0.0
52630.0,STARLINK-3989,PAYLOAD,2024-01-16 12:00:31,15.08834448,0.0001192,53.2171,184.9945,93.0665,267.0463,2.5881e-05,1.24e-06,0.0,0 STARLINK-3989,1 52630U 22052AJ  24016.50036028  .00000124  00000-0  25881-4 0  9999,2 52630  53.2171 184.9945 0001192  93.0665 267.0463 15.08834448 93138,6917.897,95.438,540.587,538.938,0.0
52630.0,STARLINK-3989,PAYLOAD,2024-01-16 18:22:03,15.0883933,0.0001597,53.2171,183.8052,99.6152,260.5021,-6.9122e-05,-1.388e-05,0.0,0 STARLINK-3989,1 52630U 22052AJ  24016.76532071 -.00001388  00000-0 -69122-4 0  9997,2 52630  53.2171 183.8052 0001597  99.6152 260.5021 15.08839330 92791,6917.882,95.438,540.852,538.643,0.0
52630.0,STARLINK-3989,PAYLOAD,2024-01-17 15:02:04,15.08835281,0.0001317,53.2172,179.9395,91.065,269.0493,2.3177e-05,8.1e-07,0.0,0 STARLINK-3989,1 52630U 22052AJ  24017.62644392  .00000081  00000-0  23177-4 0  9990,2 52630  53.2172 179.9395 0001317  91.0650 269.0493 15.08835281 92920,6917.895,95.438,540.671,538.849,0.0
52630.0,STARLINK-3989,PAYLOAD,2024-01-17 18:12:50,15.08837952,0.0001322,53.217,179.3448,87.8245,272.2898,4.6016e-05,4.44e-06,0.0,0 STARLINK-3989,1 52630U 22052AJ  24017.75892200  .00000444  00000-0  46016-4 0  9997,2 52630  53.2170 179.3448 0001322  87.8245 272.2898 15.08837952 93327,6917.887,95.438,540.666,538.837,0.0
52630.0,STARLINK-3989,PAYLOAD,2024-01-18 14:52:51,15.08841036,0.0001335,53.2173,175.4799,83.8461,276.2684,0.00012157,1.647e-05,0.0,0 STARLINK-3989,1 52630U 22052AJ  24018.62003964  .00001647  00000-0  12157-3 0  9999,2 52630  53.2173 175.4799 0001335  83.8461 276.2684 15.08841036 93073,6917.877,95.437,540.666,538.819,0.0
52630.0,STARLINK-3989,PAYLOAD,2024-01-18 18:03:37,15.08844322,0.0001345,53.2172,174.885,81.9531,278.1614,0.00014774,2.064e-05,0.0,0 STARLINK-3989,1 52630U 22052AJ  24018.75251721  .00002064  00000-0  14774-3 0  9990,2 52630  53.2172 174.8850 0001345  81.9531 278.1614 15.08844322 93098,6917.867,95.437,540.663,538.802,0.0
52630.0,STARLINK-3989,PAYLOAD,2024-01-19 09:57:29,15.08843691,0.0001518,53.2173,171.9132,72.7964,287.3194,7.4203e-05,8.93e-06,0.0,0 STARLINK-3989,1 52630U 22052AJ  24019.41492092  .00000893  00000-0  74203-4 0  9994,2 52630  53.2173 171.9132 0001518  72.7964 287.3194 15.08843691 93576,6917.869,95.437,540.784,538.684,0.0
52630.0,STARLINK-3989,PAYLOAD,2024-01-19 14:43:38,15.08843572,0.0001493,53.2173,171.021,74.1868,285.9288,6.7519e-05,7.87e-06,0.0,0 STARLINK-3989,1 52630U 22052AJ  24019.61364037  .00000787  00000-0  67519-4 0  9997,2 52630  53.2173 171.0210 0001493  74.1868 285.9288 15.08843572 93223,6917.869,95.437,540.767,538.702,0.0
52630.0,STARLINK-3989,PAYLOAD,2024-01-19 16:19:01,15.08844007,0.0001529,53.2174,170.7237,72.3542,287.7617,7.0588e-05,8.36e-06,0.0,0 STARLINK-3989,1 52630U 22052AJ  24019.67988002  .00000836  00000-0  70588-4 0  9992,2 52630  53.2174 170.7237 0001529  72.3542 287.7617 15.08844007 93239,6917.868,95.437,540.791,538.675,0.0
52630.0,STARLINK-3989,PAYLOAD,2024-01-20 14:34:25,15.08841438,0.0001554,53.2178,166.561,73.2391,286.8771,2.3285e-06,-2.51e-06,0.0,0 STARLINK-3989,1 52630U 22052AJ  24020.60724245 -.00000251  00000-0  23285-5 0  9999,2 52630  53.2178 166.5610 0001554  73.2391 286.8771 15.08841438 93372,6917.876,95.437,540.816,538.666,0.0
52630.0,STARLINK-3989,PAYLOAD,2024-01-20 16:09:48,15.08841369,0.000156,53.2178,166.2637,72.6562,287.4601,2.2171e-07,-2.84e-06,0.0,0 STARLINK-3989,1 52630U 22052AJ  24020.67348241 -.00000284  00000-0  22171-6 0  9994,2 52630  53.2178 166.2637 0001560  72.6562 287.4601 15.08841369 93763,6917.876,95.437,540.82,538.662,0.0
52630.0,STARLINK-3989,PAYLOAD,2024-01-21 19:11:21,15.08846478,0.0001513,53.2174,161.2061,77.469,282.6472,5.6343e-05,6.09e-06,0.0,0 STARLINK-3989,1 52630U 22052AJ  24021.79955615  .00000609  00000-0  56343-4 0  9993,2 52630  53.2174 161.2061 0001513  77.4690 282.6472 15.08846478 93936,6917.861,95.437,540.772,538.679,0.0
52630.0,STARLINK-3989,PAYLOAD,2024-01-22 09:29:50,15.08827616,0.0001584,53.2168,158.5264,97.878,262.2392,7.8161e-05,9.56e-06,0.0,0 STARLINK-3989,1 52630U 22052AJ  24022.39572690  .00000956  00000-0  78161-4 0  9995,2 52630  53.2168 158.5264 0001584  97.8780 262.2392 15.08827616 94026,6917.918,95.438,540.879,538.687,0.0
52630.0,STARLINK-3989,PAYLOAD,2024-01-22 15:51:22,15.08841494,0.0001489,53.2173,157.3355,89.6404,270.4759,5.6706e-05,6.15e-06,0.0,0 STARLINK-3989,1 52630U 22052AJ  24022.66068038  .00000615  00000-0  56706-4 0  9994,2 52630  53.2173 157.3355 0001489  89.6404 270.4759 15.08841494 94068,6917.876,95.437,540.771,538.711,0.0
52630.0,STARLINK-3989,PAYLOAD,2024-01-23 14:06:46,15.08841957,0.0001522,53.2172,153.1729,102.326,257.7903,2.6404e-05,1.32e-06,0.0,0 STARLINK-3989,1 52630U 22052AJ  24023.58804206  .00000132  00000-0  26404-4 0  9997,2 52630  53.2172 153.1729 0001522 102.3260 257.7903 15.08841957 93823,6917.874,95.437,540.792,538.687,0.0
52630.0,STARLINK-3989,PAYLOAD,2024-01-24 12:22:11,15.08833111,0.0001415,53.2166,149.0121,94.6179,265.4974,-2.1976e-05,-6.38e-06,0.0,0 STARLINK-3989,1 52630U 22052AJ  24024.51541306 -.00000638  00000-0 -21976-4 0  9992,2 52630  53.2166 149.0121 0001415  94.6179 265.4974 15.08833111 94344,6917.901,95.438,540.745,538.788,0.0
